OBJECT_NAME,OBJECT_ID,EPOCH,MEAN_MOTION,ECCENTRICITY,INCLINATION,RA_OF_ASC_NODE,ARG_OF_PERICENTER,MEAN_ANOMALY,EPHEMERIS_TYPE,CLASSIFICATION_TYPE,NORAD_CAT_ID,ELEMENT_SET_NO,REV_AT_EPOCH,BSTAR,MEAN_MOTION_DOT,MEAN_MOTION_DDOT
ICEYE-X43,2024-149BZ,2026-06-13T18:13:06.701376,14.99593439,.00081283,97.6780,241.7709,94.8366,265.3786,0,U,60539,999,9960,.33382198E-3,.4051E-4,0
HAWK-10A,2024-149CA,2026-06-13T18:13:47.855424,14.96505638,.00050861,97.6896,240.7298,87.8564,272.3240,0,U,60540,999,9947,.20693444E-3,.2294E-4,0
UMBRA-09,2024-149CB,2026-06-13T18:31:01.711776,15.17955090,.0000515,97.6979,251.9189,295.6651,64.4529,0,U,60541,999,10020,.93190268E-3,.18887E-3,0
QPS-SAR-8 (AMATERU-IV),2024-149CC,2026-06-13T22:24:49.665888,15.04109024,.00050184,97.6674,244.1114,114.2709,245.9041,0,U,60542,999,9978,.37961351E-3,.5201E-4,0
ARCTIC WEATHER SATELLITE,2024-149CD,2026-06-13T22:18:53.179488,14.89801935,.00036049,97.6801,235.4884,110.1816,249.9790,0,U,60543,999,9881,.8947976E-4,.805E-5,0
CAPELLA-15 (ACADIA-5),2024-149CE,2026-06-13T18:27:21.231072,14.92394296,.00050229,97.6778,237.7580,86.4716,273.7078,0,U,60544,999,9934,.38501325E-3,.3888E-4,0
HAWK-10B,2024-149CF,2026-06-13T18:13:34.582656,14.96505333,.0007017,97.6815,240.0882,102.3508,257.8499,0,U,60545,999,9947,.18730502E-3,.2072E-4,0
ICEYE-X39,2024-149CG,2026-06-13T22:35:40.460064,14.99878437,.00049201,97.6766,242.0091,127.1408,233.0266,0,U,60546,999,9963,.27968474E-3,.3409E-4,0
UMBRA-10,2024-149CH,2026-06-13T23:15:09.677664,15.17957709,.00007891,97.6987,252.1467,71.7186,288.4133,0,U,60547,999,10024,.84102989E-3,.17036E-3,0
ICEYE-X33,2024-149CJ,2026-06-13T18:27:24.783840,15.00932282,.00016221,97.7272,243.9279,101.3188,258.8219,0,U,60548,999,9969,.38093667E-3,.4795E-4,0
ICEYE-X40,2024-149CK,2026-06-13T19:53:43.786464,14.97927632,.0006612,97.6814,241.3783,91.6731,268.5248,0,U,60549,999,9957,.21305541E-3,.2454E-4,0
SATELIOT_1,2024-149CL,2026-06-13T22:53:48.454656,14.98053696,.00083525,97.6746,240.9051,90.0294,270.1885,0,U,60550,999,9958,.22869074E-3,.2647E-4,0
BRO-14,2024-149CM,2026-06-13T22:02:17.841120,14.96171682,.00081119,97.6877,240.7548,104.8955,255.3165,0,U,60551,999,9950,.65935025E-4,.686E-5,0
SATELIOT_3,2024-149CN,2026-06-13T17:30:18.276480,14.98041826,.00059606,97.6820,241.4736,94.1557,266.0346,0,U,60552,999,9956,.15577571E-3,.1783E-4,0
BRO-15,2024-149CP,2026-06-13T03:57:36.381888,14.96144075,.00096948,97.6804,239.6202,99.9331,260.2985,0,U,60553,999,9940,.12888148E-3,.1395E-4,0
UM5-RIBAT,2024-149CQ,2026-06-13T22:32:20.607360,15.01059684,.00036729,97.6642,242.7832,66.8352,293.3259,0,U,60554,999,9970,.24875997E-3,.3121E-4,0
UM5-EOSAT,2024-149CR,2026-06-13T18:33:25.178976,15.01504497,.00087292,97.6702,243.5487,124.8447,235.3599,0,U,60555,999,9970,.33565916E-3,.4285E-4,0
LASARSAT,2024-247Q,2026-06-13T14:48:20.082240,15.46168743,.0008375,44.9751,282.2745,311.5212,48.4959,0,U,62391,999,8276,.65515E-3,.32689E-3,0
CROCUBE,2024-247T,2026-06-13T17:57:18.051840,15.48041306,.00082044,44.9723,278.9259,315.9203,44.1032,0,U,62394,999,8281,.72514081E-3,.38699E-3,0
TEVEL2-4,2025-052D,2026-06-13T15:51:49.437504,15.34498104,.00047951,97.3918,61.0474,110.7775,249.3982,0,U,63213,999,6957,.58447481E-3,.19485E-3,0
TEVEL2-5,2025-052E,2026-06-13T22:36:25.608384,15.34336520,.00046971,97.3915,61.2775,110.9114,249.2632,0,U,63214,999,6961,.5668412E-3,.18796E-3,0
TEVEL2-6,2025-052F,2026-06-13T22:54:04.584672,15.34300916,.00046325,97.3920,61.2743,110.9610,249.2129,0,U,63215,999,6961,.56881808E-3,.18841E-3,0
TEVEL2-1,2025-052H,2026-06-13T23:34:15.711456,15.33772543,.00046017,97.3890,60.9305,120.0167,240.1533,0,U,63217,999,6960,.58033448E-3,.18905E-3,0
TEVEL2-3,2025-052J,2026-06-13T23:26:42.787968,15.33827114,.00045913,97.3894,60.9467,119.8547,240.3152,0,U,63218,999,6960,.5730211E-3,.18698E-3,0
TEVEL2-2,2025-052K,2026-06-13T15:45:00.318816,15.33768522,.00046134,97.3888,60.6072,120.9946,239.1750,0,U,63219,999,6955,.57639862E-3,.18774E-3,0
TEVEL2-9,2025-052AD,2026-06-13T16:40:00.359904,15.31800703,.00075109,97.3952,60.0277,140.3804,219.7988,0,U,63237,999,6949,.53567191E-3,.16401E-3,0
TEVEL2-7,2025-052AE,2026-06-13T16:03:51.883200,15.31507331,.00075563,97.3956,59.9204,140.9014,219.2775,0,U,63238,999,6948,.54930719E-3,.16668E-3,0
TEVEL2-8,2025-052AF,2026-06-13T16:15:41.700672,15.31490924,.00076295,97.3953,59.9057,141.6953,218.4831,0,U,63239,999,6948,.52565278E-3,.15937E-3,0
FORESAIL-1 PRIME,2025-276DS,2026-06-13T18:25:58.278432,15.18672801,.00039122,97.4204,238.1010,110.7328,249.4326,0,U,66778,999,2988,.24358739E-3,.4983E-4,0
