ICEYE-X43               
1 60539U 24149BZ  26164.75910534  .00004051  00000+0  33382-3 0  9997
2 60539  97.6780 241.7709 0008128  94.8366 265.3786 14.99593439 99604
HAWK-10A                
1 60540U 24149CA  26164.75958166  .00002294  00000+0  20693-3 0  9990
2 60540  97.6896 240.7298 0005086  87.8564 272.3240 14.96505638 99477
UMBRA-09                
1 60541U 24149CB  26164.77154759  .00018887  00000+0  93190-3 0  9996
2 60541  97.6979 251.9189 0000515 295.6651  64.4529 15.17955090100200
QPS-SAR-8 (AMATERU-IV)  
1 60542U 24149CC  26164.93390817  .00005201  00000+0  37961-3 0  9992
2 60542  97.6674 244.1114 0005018 114.2709 245.9041 15.04109024 99787
ARCTIC WEATHER SATELLITE
1 60543U 24149CD  26164.92978217  .00000805  00000+0  89480-4 0  9997
2 60543  97.6801 235.4884 0003604 110.1816 249.9790 14.89801935 98810
CAPELLA-15 (ACADIA-5)   
1 60544U 24149CE  26164.76899573  .00003888  00000+0  38501-3 0  9998
2 60544  97.6778 237.7580 0005022  86.4716 273.7078 14.92394296 99346
HAWK-10B                
1 60545U 24149CF  26164.75942804  .00002072  00000+0  18731-3 0  9991
2 60545  97.6815 240.0882 0007017 102.3508 257.8499 14.96505333 99478
ICEYE-X39               
1 60546U 24149CG  26164.94144051  .00003409  00000+0  27968-3 0  9998
2 60546  97.6766 242.0091 0004920 127.1408 233.0266 14.99878437 99639
UMBRA-10                
1 60547U 24149CH  26164.96886201  .00017036  00000+0  84103-3 0  9996
2 60547  97.6987 252.1467 0000789  71.7186 288.4133 15.17957709100248
ICEYE-X33               
1 60548U 24149CJ  26164.76903685  .00004795  00000+0  38094-3 0  9997
2 60548  97.7272 243.9279 0001622 101.3188 258.8219 15.00932282 99698
ICEYE-X40               
1 60549U 24149CK  26164.82897901  .00002454  00000+0  21306-3 0  9996
2 60549  97.6814 241.3783 0006612  91.6731 268.5248 14.97927632 99576
SATELIOT_1              
1 60550U 24149CL  26164.95403304  .00002647  00000+0  22869-3 0  9991
2 60550  97.6746 240.9051 0008352  90.0294 270.1885 14.98053696 99583
BRO-14                  
1 60551U 24149CM  26164.91826205  .00000686  00000+0  65935-4 0  9990
2 60551  97.6877 240.7548 0008111 104.8955 255.3165 14.96171682 99501
SATELIOT_3              
1 60552U 24149CN  26164.72937820  .00001783  00000+0  15578-3 0  9992
2 60552  97.6820 241.4736 0005960  94.1557 266.0346 14.98041826 99569
BRO-15                  
1 60553U 24149CP  26164.16500442  .00001395  00000+0  12888-3 0  9997
2 60553  97.6804 239.6202 0009694  99.9331 260.2985 14.96144075 99406
UM5-RIBAT               
1 60554U 24149CQ  26164.93912740  .00003121  00000+0  24876-3 0  9990
2 60554  97.6642 242.7832 0003672  66.8352 293.3259 15.01059684 99709
UM5-EOSAT               
1 60555U 24149CR  26164.77320809  .00004285  00000+0  33566-3 0  9990
2 60555  97.6702 243.5487 0008729 124.8447 235.3599 15.01504497 99700
LASARSAT                
1 62391U 24247Q   26164.61689910  .00032689  00000+0  65515-3 0  9991
2 62391  44.9751 282.2745 0008375 311.5212  48.4959 15.46168743 82768
CROCUBE                 
1 62394U 24247T   26164.74812560  .00038699  00000+0  72514-3 0  9991
2 62394  44.9723 278.9259 0008204 315.9203  44.1032 15.48041306 82819
TEVEL2-4                
1 63213U 25052D   26164.66098886  .00019485  00000+0  58447-3 0  9996
2 63213  97.3918  61.0474 0004795 110.7775 249.3982 15.34498104 69572
TEVEL2-5                
1 63214U 25052E   26164.94196306  .00018796  00000+0  56684-3 0  9999
2 63214  97.3915  61.2775 0004697 110.9114 249.2632 15.34336520 69615
TEVEL2-6                
1 63215U 25052F   26164.95421973  .00018841  00000+0  56882-3 0  9993
2 63215  97.3920  61.2743 0004632 110.9610 249.2129 15.34300916 69618
TEVEL2-1                
1 63217U 25052H   26164.98212629  .00018905  00000+0  58033-3 0  9995
2 63217  97.3890  60.9305 0004601 120.0167 240.1533 15.33772543 69607
TEVEL2-3                
1 63218U 25052J   26164.97688412  .00018698  00000+0  57302-3 0  9999
2 63218  97.3894  60.9467 0004591 119.8547 240.3152 15.33827114 69601
TEVEL2-2                
1 63219U 25052K   26164.65625369  .00018774  00000+0  57640-3 0  9997
2 63219  97.3888  60.6072 0004613 120.9946 239.1750 15.33768522 69556
TEVEL2-9                
1 63237U 25052AD  26164.69444861  .00016401  00000+0  53567-3 0  9996
2 63237  97.3952  60.0277 0007510 140.3804 219.7988 15.31800703 69493
TEVEL2-7                
1 63238U 25052AE  26164.66935050  .00016668  00000+0  54931-3 0  9990
2 63238  97.3956  59.9204 0007556 140.9014 219.2775 15.31507331 69483
TEVEL2-8                
1 63239U 25052AF  26164.67756598  .00015937  00000+0  52565-3 0  9999
2 63239  97.3953  59.9057 0007629 141.6953 218.4831 15.31490924 69481
FORESAIL-1 PRIME        
1 66778U 25276DS  26164.76803563  .00004983  00000+0  24359-3 0  9992
2 66778  97.4204 238.1010 0003912 110.7328 249.4326 15.18672801 29880
